,code,name,lat,long,tambon,amphoe,province,basin,region,station_type,geometry,index_right
5,BDLH  ,ทต.ลานหอย,17.008568,99.582944,ลานหอย,บ้านด่านลานหอย,สุโขทัย,แม่น้ำยม,ภาคเหนือ,R,POINT (562048.5191703987 1880595.2054925137),0
21,BSMP  ,อบต.บึงสามพัน,15.7780576,101.0208832,บึงสามพัน,บึงสามพัน,เพชรบูรณ์,แม่น้ำป่าสัก,ภาคเหนือ,R,POINT (716493.0421740364 1745424.0594145989),0
23,KRMT  ,ทต.บ้านโตนด,16.8337104,99.80272,โตนด,คีรีมาศ,สุโขทัย,แม่น้ำยม,ภาคเหนือ,R,POINT (585521.452742081 1861332.8994148157),0
27,LNR1  ,อบต.ท่ามะนาว,15.1993232,101.1638784,ท่ามะนาว,ชัยบาดาล,ลพบุรี,แม่น้ำป่าสัก,ภาคกลาง,R,POINT (732464.1843729914 1681523.50019383),0
28,SBT1  ,อบต.ชอนสารเดช,15.1849488,100.681312,ชอนสารเดช,หนองม่วง,ลพบุรี,แม่น้ำเจ้าพระยา,ภาคกลาง,R,POINT (680619.8148486458 1679476.6163647512),0
29,SPPT  ,อบต.นายาง,17.909768,99.3096896,นายาง,สบปราบ,ลำปาง,แม่น้ำวัง,ภาคเหนือ,R,POINT (532801.3167276946 1980229.9312950666),0
30,WTSG  ,ทต.วัดสิงห์,15.2583616,100.04496,วัดสิงห์,วัดสิงห์,ชัยนาท,แม่น้ำท่าจีน,ภาคกลาง,R,POINT (612210.3754313664 1687171.56948037),0
31,TTKO  ,ทต.ท่าตะโก,15.6324896,100.4748416,ท่าตะโก,ท่าตะโก,นครสวรรค์,แม่น้ำเจ้าพระยา,ภาคเหนือ,R,POINT (658095.8441732647 1728832.499914616),0
32,LTYO  ,ศูนย์อปพร.อบต.ลาดยาว,15.7627856,99.741344,ลาดยาว,ลาดยาว,นครสวรรค์,แม่น้ำเจ้าพระยา,ภาคเหนือ,R,POINT (579412.3655264974 1742835.8990045611),0
35,NGCG  ,ทต.หนองฉาง,15.3889504,99.8450304,หนองฉาง,หนองฉาง,อุทัยธานี,แม่น้ำสะแกกรัง,ภาคเหนือ,R,POINT (590683.6261135213 1701523.842090734),0
38,NKYG  ,ทต.หนองขาหย่าง,15.3622016,99.9383872,หนองขาหย่าง,หนองขาหย่าง,อุทัยธานี,แม่น้ำสะแกกรัง,ภาคเหนือ,R,POINT (600715.708436894 1698606.247341706),0
39,BARI  ,ศูนย์อปพร. อบต.บ้านไร่,15.0826576,99.51936,บ้านไร่,บ้านไร่,อุทัยธานี,แม่น้ำท่าจีน,ภาคเหนือ,R,POINT (555814.2378258873 1667534.1500017697),0
41,HIKT  ,อบต.ห้วยคต,15.3036432,99.6097152,ห้วยคต,ห้วยคต,อุทัยธานี,แม่น้ำท่าจีน,ภาคเหนือ,R,POINT (565456.593682461 1692002.6538262058),0
72,PTYS  ,อบต.หนองกุงธนสาร,16.638704,102.4205952,หนองกุงธนสาร,ภูเวียง,ขอนแก่น,แม่น้ำชี,ภาคตะวันออกเฉียงเหนือ,R,POINT (864972.1570427029 1842709.5353302574),0
76,PPTC  ,อบต.โพธิ์ประทับช้าง,16.3106624,100.2953536,โพธิ์ประทับช้าง,โพธิ์ประทับช้าง,พิจิตร,แม่น้ำยม,ภาคเหนือ,R,POINT (638385.7444516947 1803739.0049871944),0
85,LGTI  ,อบต.บ้านแหง,18.7633824,100.0087616,บ้านแหง,งาว,ลำปาง,แม่น้ำยม,ภาคเหนือ,R,POINT (606325.6048027881 2074947.664665404),0
95,NNKO  ,อบต.โนนกอก,16.1992384,101.932384,โนนกอก,เกษตรสมบูรณ์,ชัยภูมิ,แม่น้ำชี,ภาคตะวันออกเฉียงเหนือ,R,POINT (813543.9551611242 1793214.029502551),0
97,NNTU  ,อบต.นาหนองทุ่ม,16.67888,101.9871104,นาหนองทุ่ม,ชุมแพ,ขอนแก่น,แม่น้ำชี,ภาคตะวันออกเฉียงเหนือ,R,POINT (818615.5933367477 1846416.988660791),0
101,NASW  ,อบต.นาซ่าว,17.824248,101.6691584,นาซ่าว,เชียงคาน,เลย,แม่น้ำโขง,ภาคตะวันออกเฉียงเหนือ,R,POINT (782926.4268497177 1972759.4729141903),0
102,TPUR  ,ทต.ภูเรือ,17.4578016,101.3606464,หนองบัว,ภูเรือ,เลย,แม่น้ำโขง,ภาคตะวันออกเฉียงเหนือ,R,POINT (750715.3642553324 1931750.583097502),0
103,NMNO  ,อบต.น้ำหนาว,16.7702416,101.6699584,น้ำหนาว,น้ำหนาว,เพชรบูรณ์,แม่น้ำชี,ภาคเหนือ,R,POINT (784629.4793200148 1856052.8007594547),0
128,HUYG  ,อบต.หนองโพนงาม,16.4305312,101.9662784,หนองโพนงาม,เกษตรสมบูรณ์,ชัยภูมิ,แม่น้ำชี,ภาคตะวันออกเฉียงเหนือ,R,POINT (816797.9825528725 1818880.3307951945),0
129,CSMO  ,อบต.ช่องสามหมอ,16.1166976,102.2319616,ช่องสามหมอ,แก้งคร้อ,ชัยภูมิ,แม่น้ำชี,ภาคตะวันออกเฉียงเหนือ,R,POINT (845747.401904182 1784552.9285815042),0
130,BJIG  ,อบต.บ้านเจียง,16.0188304,101.5000896,บ้านเจียง,ภักดีชุมพล,ชัยภูมิ,แม่น้ำชี,ภาคตะวันออกเฉียงเหนือ,R,POINT (767535.9106181182 1772629.7521208269),0
131,BKHI  ,ทต.บ้านค่ายหมื่นแผ้ว,15.6989632,102.0147712,บ้านค่าย,เมืองชัยภูมิ,ชัยภูมิ,แม่น้ำชี,ภาคตะวันออกเฉียงเหนือ,R,POINT (823161.7846664533 1737938.8642565773),0
135,BPIA  ,อบต.ท่าสะอาด,17.4902416,101.9320896,ท่าสะอาด,นาด้วง,เลย,แม่น้ำโขง,ภาคตะวันออกเฉียงเหนือ,R,POINT (811390.4339323707 1936185.4393187033),0
136,KHPB  ,อบจ.เพชรบูรณ์,16.4412512,101.1490624,ในเมือง,เมืองเพชรบูรณ์,เพชรบูรณ์,แม่น้ำป่าสัก,ภาคเหนือ,R,POINT (729465.6579026245 1818963.5508821981),0
137,POCE  ,อบต.กกสะทอน,17.0894928,101.110048,กกสะทอน,ด่านซ้าย,เลย,แม่น้ำโขง,ภาคตะวันออกเฉียงเหนือ,R,POINT (724535.7437333956 1890670.604208511),0
143,SITP  ,อบต.ศรีเทพ,15.4379056,101.162528,ศรีเทพ,ศรีเทพ,เพชรบูรณ์,แม่น้ำป่าสัก,ภาคเหนือ,R,POINT (732055.6308412338 1707927.3686288546),0
147,NGPI  ,อบต.หนองไผ่,15.9816496,101.07376,หนองไผ่,หนองไผ่,เพชรบูรณ์,แม่น้ำป่าสัก,ภาคเหนือ,R,POINT (721936.4712414604 1768011.7347892853),0
150,PSLI  ,ทต.ไพศาลี,15.6001744,100.6571904,ไพศาลี,ไพศาลี,นครสวรรค์,แม่น้ำเจ้าพระยา,ภาคเหนือ,R,POINT (677675.0301592835 1725400.8451663267),0
155,DOCI  ,ทต.ทาสบเส้า,18.465392,99.1267456,ทาสบเส้า,แม่ทา,ลำพูน,แม่น้ำปิง,ภาคเหนือ,R,POINT (513381.9925196418 2041680.637908269),0
168,BTHI  ,ศูนย์อปพร. ทต.บ้านธิ,18.6517664,99.116512,บ้านธิ,บ้านธิ,ลำพูน,แม่น้ำปิง,ภาคเหนือ,R,POINT (512288.16603215894 2062300.8887896051),0
172,TEPT  ,อบต.โคกเริงรมย์,15.3994576,101.602592,โคกเริงรมย์,บำเหน็จณรงค์,ชัยภูมิ,แม่น้ำชี,ภาคตะวันออกเฉียงเหนือ,R,POINT (779354.9743427287 1704194.208133449),0
173,SMSU  ,ทต.บ้านเต่า,16.3556384,102.3785984,บ้านเต่า,บ้านแท่น,ชัยภูมิ,แม่น้ำชี,ภาคตะวันออกเฉียงเหนือ,R,POINT (861012.47962826 1811274.617525126),0
174,LHOK  ,อบต.เหล่ากอหก,17.4963824,100.8875136,เหล่ากอหก,นาแห้ว,เลย,แม่น้ำโขง,ภาคตะวันออกเฉียงเหนือ,R,POINT (700406.5565485038 1935461.3777238228),0
175,NNPT  ,อบต.วังทอง,17.3207936,102.0247936,วังทอง,นาวัง,หนองบัวลำภู,แม่น้ำชี,ภาคตะวันออกเฉียงเหนือ,R,POINT (821539.7689508222 1917571.965134139),0
177,BNHI  ,อบต.นาคำไฮ,17.2618176,102.338208,นาคำไฮ,เมืองหนองบัวลำภู,หนองบัวลำภู,แม่น้ำชี,ภาคตะวันออกเฉียงเหนือ,R,POINT (854999.2105188688 1911590.220860596),0
178,SENM  ,ทต.เสริมงาม,18.0662384,99.2494784,ทุ่งงาม,เสริมงาม,ลำปาง,แม่น้ำวัง,ภาคเหนือ,R,POINT (526400.6269948795 1997531.751136595),0
180,MRMT  ,อบต.แม่ระมาด,16.9899008,98.5182784,แม่ระมาด,แม่ระมาด,ตาก,แม่น้ำสาละวิน,ภาคเหนือ,R,POINT (448720.74394382176 1878500.8031749115),0
191,KGTP  ,ทต.คุ้งตะเภา,17.625312,100.1236672,คุ้งตะเภา,เมืองอุตรดิตถ์,อุตรดิตถ์,แม่น้ำน่าน,ภาคเหนือ,R,POINT (619209.3287035396 1949086.292009027),0
200,CHHA  ,ทต.ช่อแฮ,18.0888608,100.2121216,ช่อแฮ,เมืองแพร่,แพร่,แม่น้ำยม,ภาคเหนือ,R,POINT (628261.720290736 2000438.0963124142),0
201,RGKG  ,อบต.ร้องกวาง,18.3588368,100.3339072,ร้องกวาง,ร้องกวาง,แพร่,แม่น้ำยม,ภาคเหนือ,R,POINT (640932.8169483162 2030403.3711902387),0
202,SGMN  ,ศูนย์พัฒนาเด็กเล็ก อบต.สูงเม่น,18.0626656,100.0952832,สูงเม่น,สูงเม่น,แพร่,แม่น้ำยม,ภาคเหนือ,R,POINT (615914.2667889711 1997462.1930779174),0
204,NMKI  ,ทต.หนองม่วงไข่,18.2642976,100.2001024,หนองม่วงไข่,หนองม่วงไข่,แพร่,แม่น้ำยม,ภาคเหนือ,R,POINT (626862.8807020755 2019843.2354584893),0
206,BNHG  ,ทต.บ้านโฮ่ง,18.3353328,98.8183552,บ้านโฮ่ง,บ้านโฮ่ง,ลำพูน,แม่น้ำปิง,ภาคเหนือ,R,POINT (480807.25315680215 2027295.676001277),0
208,CGMN  ,ทต.เชียงม่วน,18.8938416,100.28784,เชียงม่วน,เชียงม่วน,พะเยา,แม่น้ำยม,ภาคเหนือ,R,POINT (635639.8335312665 2089575.007037994),0
210,LEEE  ,ทต.วังดิน,17.8019888,98.9471552,ลี้,ลี้,ลำพูน,แม่น้ำปิง,ภาคเหนือ,R,POINT (494399.49981461314 1968279.3643988022),0
214,PASG  ,ทต.ป่าซาง,18.5181104,98.9394816,ป่าซาง,ป่าซาง,ลำพูน,แม่น้ำปิง,ภาคเหนือ,R,POINT (493612.3329076203 2047509.8794631273),0
217,SLBC  ,อบต.สลกบาตร,15.9790704,99.824608,สลกบาตร,ขาณุวรลักษบุรี,กำแพงเพชร,แม่น้ำเจ้าพระยา,ภาคเหนือ,R,POINT (588237.8862077702 1766795.068462972),0
219,SRKT  ,อบต.ท่าแฝก,17.9457168,100.6310656,ท่าแฝก,ท่าปลา,อุตรดิตถ์,แม่น้ำน่าน,ภาคเหนือ,R,POINT (672740.664036691 1984937.6002614424),0
220,CEHM  ,อบต.แจ้ห่ม,18.712304,99.5820672,แจ้ห่ม,แจ้ห่ม,ลำปาง,แม่น้ำวัง,ภาคเหนือ,R,POINT (561367.8699063167 2069095.0231201441),0
223,BPPS  ,อบต.บางตาหงาย,15.9371344,99.9916864,บางตาหงาย,บรรพตพิสัย,นครสวรรค์,แม่น้ำปิง,ภาคเหนือ,R,POINT (606139.7291942441 1762233.7881977216),0
224,KOLO  ,ทต.เก้าเลี้ยว,15.8602928,100.0917952,เก้าเลี้ยว,เก้าเลี้ยว,นครสวรรค์,แม่น้ำปิง,ภาคเหนือ,R,POINT (616899.7658306011 1753786.2608737515),0
225,BKDN  ,อบต.เขาทอง,15.5707184,100.1832064,เขาทอง,พยุหะคีรี,นครสวรรค์,แม่น้ำเจ้าพระยา,ภาคเหนือ,R,POINT (626867.6337031785 1721803.2441492549),0
226,SKKG  ,อบต.สะแกกรัง,15.399048,100.0350656,สะแกกรัง,เมืองอุทัยธานี,อุทัยธานี,แม่น้ำสะแกกรัง,ภาคเหนือ,R,POINT (611073.4567149124 1702729.685219298),0
227,SWAR  ,ทต.สว่างอารมณ์,15.5854112,99.8651456,สว่างอารมณ์,สว่างอารมณ์,อุทัยธานี,แม่น้ำสะแกกรัง,ภาคเหนือ,R,POINT (592754.7786523625 1723264.9089745597),0
229,WTBT  ,อบต.วัดโบสถ์,16.9581424,100.337312,วัดโบสถ์,วัดโบสถ์,พิษณุโลก,แม่น้ำน่าน,ภาคเหนือ,R,POINT (642390.1804528382 1875409.2931922176),0
230,WCTK  ,โครงการชลประทานพิษณุโลก,16.8150544,100.2599104,ในเมือง,เมืองพิษณุโลก,พิษณุโลก,แม่น้ำน่าน,ภาคเหนือ,R,POINT (634248.8520175396 1859522.658273233),0
231,BRKM  ,ทต.บางระกำเมืองใหม่,16.748904,100.0902784,บางระกำ,บางระกำ,พิษณุโลก,แม่น้ำยม,ภาคเหนือ,R,POINT (616212.0806588448 1852096.5489389831),0
232,BWKG  ,อบต.บ้านไร่,16.6107888,100.2658112,บ้านไร่,บางกระทุ่ม,พิษณุโลก,แม่น้ำน่าน,ภาคเหนือ,R,POINT (635021.3071075554 1836925.7856352031),0
233,WGPO  ,ลานกีฬา อบต.วังโป่ง,16.3659136,100.8306816,วังโป่ง,วังโป่ง,เพชรบูรณ์,แม่น้ำน่าน,ภาคเหนือ,R,POINT (695535.2401050599 1810291.8064500764),0
234,WTLG  ,บ่อบำบัด ทม.พิจิตร,16.4332048,100.3319872,ในเมือง,เมืองพิจิตร,พิจิตร,แม่น้ำน่าน,ภาคเหนือ,R,POINT (642211.1268939463 1817322.7468894832),0
235,THTN  ,ทม.ตะพานหิน,16.2110688,100.4194624,ตะพานหิน,ตะพานหิน,พิจิตร,แม่น้ำน่าน,ภาคเหนือ,R,POINT (651723.246259121 1792807.6267871018),0
242,WGSA  ,ทต.กลางเวียง,18.5661856,100.7355136,กลางเวียง,เวียงสา,น่าน,แม่น้ำน่าน,ภาคเหนือ,R,POINT (683153.2436813653 2053711.3619917212),0
243,WSPN  ,อบต.วังทรายพูน,16.4061104,100.5386304,วังทรายพูน,วังทรายพูน,พิจิตร,แม่น้ำน่าน,ภาคเหนือ,R,POINT (664300.5707067847 1814481.0990893086),0
245,NAMN  ,สนามกีฬา ทต.บ่อแก้ว,18.2104736,100.662432,บ่อแก้ว,นาหมื่น,น่าน,แม่น้ำน่าน,ภาคเหนือ,R,POINT (675799.426150104 2014268.958907281),0
247,KKPA  ,ทต.โกรกพระ,15.5531504,100.0708672,โกรกพระ,โกรกพระ,นครสวรรค์,แม่น้ำเจ้าพระยา,ภาคเหนือ,R,POINT (614830.6958723619 1719796.139368209),0
248,TGLG  ,อบต.ทุ่งแล้ง,17.9705056,99.7466304,ทุ่งแล้ง,ลอง,แพร่,แม่น้ำยม,ภาคเหนือ,R,POINT (579055.2044479782 1987081.3271030693),0
251,DITO  ,อบต.ดอยเต่า,17.9155216,98.7279424,ดอยเต่า,ดอยเต่า,เชียงใหม่,แม่น้ำปิง,ภาคเหนือ,R,POINT (471185.49829643226 1980860.2646472168),0
252,CNDN  ,อบต.ชนแดน,16.1790688,100.901664,ชนแดน,ชนแดน,เพชรบูรณ์,แม่น้ำน่าน,ภาคเหนือ,R,POINT (703311.5687990446 1789683.5110803614),0
253,TAKL  ,อบต.ตาดกลอย,17.0035264,101.3660416,ตาดกลอย,หล่มเก่า,เพชรบูรณ์,แม่น้ำป่าสัก,ภาคเหนือ,R,POINT (751904.1716972239 1881466.7593427643),0
254,BNTK  ,อบต.ตากออก,17.0602816,99.064992,ตากออก,บ้านตาก,ตาก,แม่น้ำปิง,ภาคเหนือ,R,POINT (506915.7446259636 1886224.8574793665),0
255,WCBR  ,ทม.วิเชียรบุรี,15.6573136,101.124768,ท่าโรง,วิเชียรบุรี,เพชรบูรณ์,แม่น้ำป่าสัก,ภาคเหนือ,R,POINT (727760.590543556 1732170.054350953),0
256,PPCT  ,อบต.พบพระ,16.4163184,98.6871424,พบพระ,พบพระ,ตาก,แม่น้ำสาละวิน,ภาคเหนือ,R,POINT (466596.92273934867 1815012.8678765686),0
257,HOTT  ,อบต.หางดง,18.1619776,98.6085824,หางดง,ฮอด,เชียงใหม่,แม่น้ำปิง,ภาคเหนือ,R,POINT (458601.2420589319 2008150.3428070492),0
258,PRGB  ,อบต.ปากแคว,17.0140464,99.814208,ปากแคว,เมืองสุโขทัย,สุโขทัย,แม่น้ำยม,ภาคเหนือ,R,POINT (586662.9098035406 1881289.1053221638),0
259,THCG  ,ทต.ทุ่งหัวช้าง,18.0034384,99.026912,ทุ่งหัวช้าง,ทุ่งหัวช้าง,ลำพูน,แม่น้ำปิง,ภาคเหนือ,R,POINT (502848.9197145132 1990566.160187441),0
260,SSRG  ,ทต.ศรีสำโรง,17.1682688,99.8726464,สามเรือน,ศรีสำโรง,สุโขทัย,แม่น้ำยม,ภาคเหนือ,R,POINT (592807.0002679247 1898378.5534436991),0
261,NMPT  ,ทต.น้ำปาด,17.7253184,100.6814016,แสนตอ,น้ำปาด,อุตรดิตถ์,แม่น้ำน่าน,ภาคเหนือ,R,POINT (678292.1170770471 1960592.9040428668),0
262,TGSK  ,ทต.ทองแสนขัน,17.4679088,100.3324672,ป่าคาย,ทองแสนขัน,อุตรดิตถ์,แม่น้ำน่าน,ภาคเหนือ,R,POINT (641485.9906252288 1931812.5430898468),0
263,DCCT  ,ทต.เด่นชัย,17.9836368,100.0516864,เด่นชัย,เด่นชัย,แพร่,แม่น้ำยม,ภาคเหนือ,R,POINT (611349.6377195051 1988690.72505401),0
264,WCHN  ,อบต.วังชิ้น,17.878864,99.619232,วังชิ้น,วังชิ้น,แพร่,แม่น้ำยม,ภาคเหนือ,R,POINT (565599.1791215261 1976892.441228342),0
266,NMKO  ,อบต.หนองไม้กอง,16.4356768,99.9451136,หนองไม้กอง,ไทรงาม,กำแพงเพชร,แม่น้ำยม,ภาคเหนือ,R,POINT (600901.0342940795 1817363.9747555598),0
267,KGLN  ,ทต.คลองลานพัฒนา,16.12252,99.329312,คลองลานพัฒนา,คลองลาน,กำแพงเพชร,แม่น้ำปิง,ภาคเหนือ,R,POINT (535212.2228994634 1782516.0332610733),0
268,TETN  ,อบต.แม่ปะ,17.6518064,99.2675712,แม่ปะ,เถิน,ลำปาง,แม่น้ำวัง,ภาคเหนือ,R,POINT (528380.9445999593 1951683.5369947774),0
269,PSLT  ,อบต.โพธิ์ทอง,16.1209888,99.5257152,โพธิ์ทอง,ปางศิลาทอง,กำแพงเพชร,แม่น้ำปิง,ภาคเหนือ,R,POINT (556213.7951749777 1782390.1678576104),0
270,NKMT  ,อบต.บ่อแฮ้ว,18.3194288,99.4466112,บ่อแฮ้ว,เมืองลำปาง,ลำปาง,แม่น้ำวัง,ภาคเหนือ,R,POINT (547193.9612689128 2025584.302933581),0
272,PHKD  ,อบต.ศรีฐาน,16.8770816,101.861408,ศรีฐาน,ภูกระดึง,เลย,แม่น้ำชี,ภาคตะวันออกเฉียงเหนือ,R,POINT (804881.4720061 1868168.8046830916),0
273,RMMI  ,วัดวังตะเคียน,16.7114288,98.506688,ท่าสายลวด,แม่สอด,ตาก,แม่น้ำสาละวิน,ภาคเหนือ,R,POINT (447410.0314054465 1847697.401354527),0
274,KTKB  ,อบจ.ตาก,16.8778096,99.1396416,ระแหง,เมืองตาก,ตาก,แม่น้ำปิง,ภาคเหนือ,R,POINT (514873.5145415201 1866043.0670391144),0
275,PMPN  ,ศูนย์ดูแลผู้สูงอายุ ทต.สามเงา,17.2249056,99.0511424,สามเงา,สามเงา,ตาก,แม่น้ำปิง,ภาคเหนือ,R,POINT (505437.22840700514 1904436.20925001),0
277,UPCT  ,ทต.อุ้มผาง,16.0177824,98.86512,อุ้มผาง,อุ้มผาง,ตาก,แม่น้ำแม่กลอง,ภาคเหนือ,R,POINT (485570.2424624429 1770907.0542036719),0
278,SNKO  ,ทต.ศรีนคร,17.355064,99.9922496,ศรีนคร,ศรีนคร,สุโขทัย,แม่น้ำยม,ภาคเหนือ,R,POINT (605421.7211242137 1919106.9897980583),0
279,TSLM  ,ทต.ทุ่งเสลี่ยม,17.3237504,99.5675584,ทุ่งเสลี่ยม,ทุ่งเสลี่ยม,สุโขทัย,แม่น้ำยม,ภาคเหนือ,R,POINT (560308.8844131649 1915459.438843172),0
280,NGBA  ,ทต.หนองบัว,15.8707248,100.5973312,หนองบัว,หนองบัว,นครสวรรค์,แม่น้ำเจ้าพระยา,ภาคเหนือ,R,POINT (671029.396626152 1755287.8393226415),0
282,TKFA  ,อบต.ตากฟ้า,15.2964704,100.5028096,ตากฟ้า,ตากฟ้า,นครสวรรค์,แม่น้ำเจ้าพระยา,ภาคเหนือ,R,POINT (661354.5352842861 1691675.7080225756),0
283,MWOG  ,อบต.แม่วงก์,15.7810048,99.5459136,แม่วงก์,แม่วงก์,นครสวรรค์,แม่น้ำสะแกกรัง,ภาคเหนือ,R,POINT (558472.1070662509 1744787.3526887195),0
284,LNSK  ,อบต.ลานสัก,15.4727632,99.53968,ลานสัก,ลานสัก,อุทัยธานี,แม่น้ำสะแกกรัง,ภาคเหนือ,R,POINT (557890.9304276805 1710689.532233926),0
286,BNAN  ,อบต.บ้านกิ่ว,18.087,99.5041152,บ้านกิ่ว,แม่ทะ,ลำปาง,แม่น้ำวัง,ภาคเหนือ,R,POINT (553341.2841914743 1999883.7817745404),0
287,NMPR  ,ทต.เนินมะปราง,16.5707248,100.6493632,เนินมะปราง,เนินมะปราง,พิษณุโลก,แม่น้ำน่าน,ภาคเหนือ,R,POINT (675978.8229365104 1832789.9967043381),0
289,CTKN  ,อบต.ป่าแดง,17.2621568,100.576288,ป่าแดง,ชาติตระการ,พิษณุโลก,แม่น้ำน่าน,ภาคเหนือ,R,POINT (667567.7106635754 1909240.6259306706),0
290,SYTL  ,อบต.วังงิ้ว,16.0156544,100.7328256,วังงิ้ว,ดงเจริญ,พิจิตร,แม่น้ำเจ้าพระยา,ภาคเหนือ,R,POINT (685407.4172966623 1771440.686875405),0
291,NSNO  ,อบต.หนองโสน,16.3965104,100.0552384,หนองโสน,สามง่าม,พิจิตร,แม่น้ำยม,ภาคเหนือ,R,POINT (612681.6622278236 1813088.8949177242),0
292,PTLE  ,ทต.โพทะเล,16.0937632,100.2600896,โพทะเล,โพทะเล,พิจิตร,แม่น้ำยม,ภาคเหนือ,R,POINT (634765.1713222387 1779717.836264555),0
293,TPKO  ,ทต.ทับคล้อ,16.1696384,100.5660096,ทับคล้อ,ทับคล้อ,พิจิตร,แม่น้ำน่าน,ภาคเหนือ,R,POINT (667425.4637289332 1788337.2708503425),0
300,BBON  ,อบต.แจ้ซ้อน,18.8169248,99.500032,แจ้ซ้อน,เมืองปาน,ลำปาง,แม่น้ำวัง,ภาคเหนือ,R,POINT (552686.1354448464 2080644.939485162),0
307,CHTG  ,อบต.เจาทอง,15.9069184,101.4275264,เจาทอง,ภักดีชุมพล,ชัยภูมิ,แม่น้ำชี,ภาคตะวันออกเฉียงเหนือ,R,POINT (759911.2959355884 1760148.9654096009),0
308,NSRS  ,โรงปรับปรุงคุณภาพน้ำฯ ทน.นครสวรรค์,15.698576,100.1369024,ปากน้ำโพ,เมืองนครสวรรค์,นครสวรรค์,แม่น้ำเจ้าพระยา,ภาคเหนือ,R,POINT (621826.5281861896 1735921.0701056675),0
309,CMSG  ,อบต.พิกุล,15.898448,100.307744,พิกุล,ชุมแสง,นครสวรรค์,แม่น้ำน่าน,ภาคเหนือ,R,POINT (639998.4391955644 1758140.0287784894),0
311,OMKI  ,อบต.อมก๋อย,17.7979136,98.341472,อมก๋อย,อมก๋อย,เชียงใหม่,แม่น้ำปิง,ภาคเหนือ,R,POINT (430206.2653713828 1967950.3199461582),0
318,TPTN  ,ทต.ทัพทัน,15.457664,99.8948096,ทัพทัน,ทัพทัน,อุทัยธานี,แม่น้ำสะแกกรัง,ภาคเหนือ,R,POINT (595994.4252226783 1709146.4846553865),0
319,PPRM  ,อบต.พรหมพิราม,17.021656,100.192128,พรหมพิราม,พรหมพิราม,พิษณุโลก,แม่น้ำน่าน,ภาคเหนือ,R,POINT (626887.0177134685 1882337.1927395852),0
321,NKTI  ,ทต.นครไทย,17.1010128,100.829152,นครไทย,นครไทย,พิษณุโลก,แม่น้ำน่าน,ภาคเหนือ,R,POINT (694623.7848715179 1891643.3879555778),0
323,WGTG  ,ที่ทำการผู้ใหญ่บ้าน หมู่ 13 ต.วังทอง,16.831776,100.4288704,วังทอง,วังทอง,พิษณุโลก,แม่น้ำน่าน,ภาคเหนือ,R,POINT (652241.850441907 1861495.1811194215),0
324,SWKL  ,โรงฆ่าสัตว์ ทม.สวรรคโลก,17.3167664,99.8251456,เมืองสวรรคโลก,สวรรคโลก,สุโขทัย,แม่น้ำยม,ภาคเหนือ,R,POINT (587684.7946593722 1914785.8096542773),0
332,NMUB  ,อบต.น้ำมวบ,18.484216,100.9307712,น้ำมวบ,เวียงสา,น่าน,แม่น้ำน่าน,ภาคเหนือ,R,POINT (703862.4129871652 2044847.9751846078),0
334,HCTT  ,อบต.หนองหล่ม,18.3362624,99.3999104,หนองหล่ม,ห้างฉัตร,ลำปาง,แม่น้ำวัง,ภาคเหนือ,R,POINT (542254.8731840765 2027435.3481892908),0
340,BMNK  ,เทศบาลตำบลหอไกร,16.0501104,100.3737152,หอไกร,บางมูลนาก,พิจิตร,แม่น้ำน่าน,ภาคเหนือ,R,POINT (646951.2688603778 1774965.4442832493),0
341,NANT  ,อบจ.น่าน,18.7990608,100.7331584,ในเวียง,เมืองน่าน,น่าน,แม่น้ำน่าน,ภาคเหนือ,R,POINT (682654.7981544521 2079484.6510444374),0
342,NPNK  ,อบต.หนองผักนาก,14.7644736,100.0194432,หนองผักนาก,สามชุก,สุพรรณบุรี,แม่น้ำท่าจีน,ภาคกลาง,R,POINT (609721.8708322619 1632524.7762691993),0
343,MCRM  ,รพสต.หมอเมือง,18.6781616,100.9927872,หมอเมือง,แม่จริม,น่าน,แม่น้ำน่าน,ภาคเหนือ,R,POINT (710174.4904955067 2066388.2164766085),0
346,BLUG  ,สนามกีฬา อบต.ป่าคาหลวง,18.8528688,100.4350336,ป่าคาหลวง,บ้านหลวง,น่าน,แม่น้ำยม,ภาคเหนือ,R,POINT (651181.9745272436 2085159.7138300273),0
347,NANI  ,อบต.นาน้อย,18.3281328,100.7087104,นาน้อย,นาน้อย,น่าน,แม่น้ำน่าน,ภาคเหนือ,R,POINT (680572.6679318578 2027336.379705455),0
349,KKTO  ,ทต.ลำปางหลวง,18.230336,99.3912256,ลำปางหลวง,เกาะคา,ลำปาง,แม่น้ำวัง,ภาคเหนือ,R,POINT (541362.3237332383 2015713.5040198816),0
358,MMMO  ,ทต.แม่เมาะ,18.272936,99.6516096,แม่เมาะ,แม่เมาะ,ลำปาง,แม่น้ำวัง,ภาคเหนือ,R,POINT (568875.3999693413 2020505.3513079633),0
369,LMKO  ,อบต.หล่มเก่า,16.8807056,101.238368,หล่มเก่า,หล่มเก่า,เพชรบูรณ์,แม่น้ำป่าสัก,ภาคเหนือ,R,POINT (738460.1292211412 1867711.2399213577),0
370,TAKI  ,อบต.ตาคลี,15.2912048,100.3829056,ตาคลี,ตาคลี,นครสวรรค์,แม่น้ำเจ้าพระยา,ภาคเหนือ,R,POINT (648482.0616399762 1691007.585499374),0
371,PICI  ,อบต.ในเมือง,17.295936,100.1006784,ในเมือง,พิชัย,อุตรดิตถ์,แม่น้ำน่าน,ภาคเหนือ,R,POINT (616980.3039158517 1912627.520440972),0
373,SWH1  ,อบต.บ้านพราน,14.7021536,100.2981952,บ้านพราน,แสวงหา,อ่างทอง,แม่น้ำเจ้าพระยา,ภาคกลาง,R,POINT (639767.4786109414 1625785.198409379),0
374,WSPR  ,ทต.โคกตูม,14.8126576,100.7899264,โคกตูม,เมืองลพบุรี,ลพบุรี,แม่น้ำเจ้าพระยา,ภาคกลาง,R,POINT (692624.39341714 1638374.67333063),0
375,LMSK  ,ทต.ตาลเดี่ยว,16.7713424,101.253664,ตาลเดี่ยว,หล่มสัก,เพชรบูรณ์,แม่น้ำป่าสัก,ภาคเหนือ,R,POINT (740228.2683423273 1855623.8622889754),0
376,KOKO  ,อบต.ทุ่งสมอ,16.7050176,101.044064,ทุ่งสมอ,เขาค้อ,เพชรบูรณ์,แม่น้ำน่าน,ภาคเหนือ,R,POINT (717953.1467154077 1848040.950394119),0
377,NMKH  ,อบต.หนองมะค่า,15.4321584,100.92448,หนองมะค่า,โคกเจริญ,ลพบุรี,แม่น้ำป่าสัก,ภาคกลาง,R,POINT (706508.1488958858 1707048.6601378797),0
378,PCHI  ,อบต.โพธิ์ชัย,14.9971808,100.4235904,โพธิ์ชัย,อินทร์บุรี,สิงห์บุรี,แม่น้ำเจ้าพระยา,ภาคกลาง,R,POINT (653062.337354509 1658506.3102485926),0
379,LMPN  ,สวนสาธารณะกู่ช้าง ทต.ลำพูน,18.5863968,99.0194816,ในเมือง,เมืองลำพูน,ลำพูน,แม่น้ำปิง,ภาคเหนือ,R,POINT (502055.4491340147 2055064.2972968507),0
380,TRON  ,ทต.ตรอน,17.486112,100.1056256,วังแดง,ตรอน,อุตรดิตถ์,แม่น้ำน่าน,ภาคเหนือ,R,POINT (617384.7675404995 1933672.8032840758),0
381,BNKK  ,ทต.บ้านโคก,18.021032,101.0647616,บ้านโคก,บ้านโคก,อุตรดิตถ์,แม่น้ำน่าน,ภาคเหนือ,R,POINT (718593.6656763612 1993731.3247384024),0
382,MNRM  ,ทต.คุ้งสำเภา,15.3100304,100.081728,คุ้งสำเภา,มโนรมย์,ชัยนาท,แม่น้ำเจ้าพระยา,ภาคกลาง,R,POINT (616130.5636064331 1692906.6827055134),0
383,HUKT  ,ทต.สรรพยา,15.1321296,100.2512832,สรรพยา,สรรพยา,ชัยนาท,แม่น้ำเจ้าพระยา,ภาคกลาง,R,POINT (634448.6227357328 1673323.4873797712),0
385,LDKS  ,อบต.นากอก,16.8967984,102.201664,นากอก,ศรีบุญเรือง,หนองบัวลำภู,แม่น้ำชี,ภาคตะวันออกเฉียงเหนือ,R,POINT (841130.0027772547 1870910.6910195649),0
389,BSIK  ,อบต.เขาหลวง,17.3174128,101.6353472,เขาหลวง,วังสะพุง,เลย,แม่น้ำโขง,ภาคตะวันออกเฉียงเหนือ,R,POINT (780120.2239565778 1916587.9385682966),0
394,MEPK  ,อบต.แม่พริก,17.455208,99.1186432,แม่พริก,แม่พริก,ลำปาง,แม่น้ำวัง,ภาคเหนือ,R,POINT (512597.8898368157 1929917.4609783625),0
397,LPLE  ,ทต.ศรีพนมมาศ,17.6545616,100.0358272,ศรีพนมมาศ,ลับแล,อุตรดิตถ์,แม่น้ำน่าน,ภาคเหนือ,R,POINT (609871.8216835753 1952269.4834132884),0
404,NIKS  ,อบต.นิคมกระเสียว,14.8573408,99.5750784,นิคมกระเสียว,ด่านช้าง,สุพรรณบุรี,แม่น้ำท่าจีน,ภาคกลาง,R,POINT (561866.9300635211 1642626.964498457),0
409,SNGT  ,อบต.บ้านกลาง,18.4820128,100.1775424,บ้านกลาง,สอง,แพร่,แม่น้ำยม,ภาคเหนือ,R,POINT (624321.6943305411 2043919.9274917303),0
418,BHMN  ,อบต.ห้วยมุ่น,17.8091584,100.9394624,ห้วยมุ่น,น้ำปาด,อุตรดิตถ์,แม่น้ำน่าน,ภาคเหนือ,R,POINT (705568.4261545658 1970136.1842316699),0
421,STWN  ,ทต.ทุ่งทราย,16.2950736,99.808992,ทุ่งทราย,ทรายทองวัฒนา,กำแพงเพชร,แม่น้ำน่าน,ภาคเหนือ,R,POINT (586429.5910178091 1801746.4360354233),0
423,KPPT  ,อบจ.กำแพงเพชร,16.4109168,99.5219136,อ่างทอง,เมืองกำแพงเพชร,กำแพงเพชร,แม่น้ำปิง,ภาคเหนือ,R,POINT (555725.4552086418 1814461.283372672),0
424,KGKG  ,อบต.คลองขลุง,16.2087008,99.7089472,คลองขลุง,คลองขลุง,กำแพงเพชร,แม่น้ำปิง,ภาคเหนือ,R,POINT (575773.7832796774 1792151.7816872555),0
426,HNKA  ,ทต.หันคา,14.969648,100.0103936,หันคา,หันคา,ชัยนาท,แม่น้ำท่าจีน,ภาคกลาง,R,POINT (608645.0780759107 1655216.3992565488),0
428,PKTI  ,ทต.พรานกระต่าย,16.653768,99.5757824,พรานกระต่าย,พรานกระต่าย,กำแพงเพชร,แม่น้ำยม,ภาคเหนือ,R,POINT (561400.4330022612 1841342.1895871817),0
429,WGYG  ,อบต.วังม่วง,14.8486544,101.145504,วังม่วง,วังม่วง,สระบุรี,แม่น้ำป่าสัก,ภาคกลาง,R,POINT (730866.325733885 1642694.7048090608),0
430,LKBU  ,อบต.ลานกระบือ,16.618064,99.880032,ลานกระบือ,ลานกระบือ,กำแพงเพชร,แม่น้ำยม,ภาคเหนือ,R,POINT (593864.2270818119 1837510.3241608117),0
467,WAN001,สามเงา,17.260568,99.0780032,วังหมัน,สามเงา,ตาก,แม่น้ำวัง,ภาคเหนือ,W,POINT (508291.3561469016 1908382.4124451661),0
468,PIN005,เก้าเลี้ยว,15.8505744,100.052032,หัวดง,เก้าเลี้ยว,นครสวรรค์,แม่น้ำปิง,ภาคเหนือ,W,POINT (612647.2509043273 1752689.3520690321),0
469,YOM005,ศรีสัชนาลัย,17.5171504,99.7587584,หาดเสี้ยว,ศรีสัชนาลัย,สุโขทัย,แม่น้ำยม,ภาคเหนือ,W,POINT (580541.861583666 1936926.7823287775),0
470,PIN004,ขาณุวรลักษบุรี,16.0647808,99.8603072,ป่าพุทรา,ขาณุวรลักษบุรี,กำแพงเพชร,แม่น้ำปิง,ภาคเหนือ,W,POINT (592018.8519708419 1776292.2710270989),0
472,NAN005,แม่น้ำเข็ก (ว้งทอง),16.855008,100.6668032,วังนกแอ่น,วังทอง,พิษณุโลก,แม่น้ำน่าน,ภาคเหนือ,W,POINT (677576.7643107475 1864264.4941625742),0
474,NAN003,เมืองน่าน,18.7380144,100.7560896,ท่าน้าว,ภูเพียง,น่าน,แม่น้ำน่าน,ภาคเหนือ,W,POINT (685138.7351401432 2072751.362666044),0
475,YOM007,กงไกรลาศ,16.927288,99.9594112,กง,กงไกรลาศ,สุโขทัย,แม่น้ำยม,ภาคเหนือ,W,POINT (602166.1233312574 1871760.3673942487),0
476,CHI003,เมืองชัยภูมิ,15.6816048,102.0095232,บ้านค่าย,เมืองชัยภูมิ,ชัยภูมิ,แม่น้ำชี,ภาคตะวันออกเฉียงเหนือ,W,POINT (822626.1236210803 1736008.5349790475),0
478,WAN002,แม่พริก,17.4452128,99.12896,แม่พริก,แม่พริก,ลำปาง,แม่น้ำวัง,ภาคเหนือ,W,POINT (513694.1063322114 1928812.4004067502),0
481,NAN002,ภูเพียง,18.859704,100.817184,เมืองจัง,ภูเพียง,น่าน,แม่น้ำน่าน,ภาคเหนือ,W,POINT (691443.7004495652 2086285.719473439),0
482,YOM009,โพธิ์ประทับช้าง,16.3107888,100.2717632,โพธิ์ประทับช้าง,โพธิ์ประทับช้าง,พิจิตร,แม่น้ำยม,ภาคเหนือ,W,POINT (635865.0837591034 1803737.1288724435),0
483,YOM008,บางระกำ,16.708176,100.1718272,บางระกำ,บางระกำ,พิษณุโลก,แม่น้ำยม,ภาคเหนือ,W,POINT (624931.829019113 1847639.8024314612),0
488,NAN006,บางกระทุ่ม,16.5804544,100.2386304,โคกสลุด,บางกระทุ่ม,พิษณุโลก,แม่น้ำน่าน,ภาคเหนือ,W,POINT (632142.3326238616 1833551.3942933746),0
492,NAN007,ตะพานหิน,16.270416,100.4139904,งิ้วราย,ตะพานหิน,พิจิตร,แม่น้ำน่าน,ภาคเหนือ,W,POINT (651092.9235265083 1799370.0901079546),0
494,NAN004,พิชัย,17.2943984,100.0828224,ในเมือง,พิชัย,อุตรดิตถ์,แม่น้ำน่าน,ภาคเหนือ,W,POINT (615083.3320939124 1912446.6400791937),0
499,PIN002,เมืองตาก,16.786512,99.183968,ประดาง,วังเจ้า,ตาก,แม่น้ำปิง,ภาคเหนือ,W,POINT (519604.21301025 1855947.2639115406),0
503,PIN003,สะพานลานดอกไม้,16.6282096,99.432608,ลานดอกไม้,เมืองกำแพงเพชร,กำแพงเพชร,แม่น้ำปิง,ภาคเหนือ,W,POINT (546138.3932364312 1838476.3163423939),0
507,YOM004,เด่นชัย,18.0208064,100.058784,เด่นชัย,เด่นชัย,แพร่,แม่น้ำยม,ภาคเหนือ,W,POINT (612077.6896838285 1992807.8720926242),0
510,YOM003,หนองม่วงไข่,18.2659008,100.1770624,น้ำรัด,หนองม่วงไข่,แพร่,แม่น้ำยม,ภาคเหนือ,W,POINT (624425.8988615205 2020004.8037722274),0
511,YOM006,สวรรคโลก,17.201904,99.8638656,ท่าทอง,สวรรคโลก,สุโขทัย,แม่น้ำยม,ภาคเหนือ,W,POINT (591856.5137154022 1902095.688620082),0
512,WAN003,เถิน,17.75176,99.230624,แม่ถอด,เถิน,ลำปาง,แม่น้ำวัง,ภาคเหนือ,W,POINT (524448.4480443916 1962736.584681509),0
514,NAN008,ชุมแสง,15.8692384,100.2648384,เกยไชย,ชุมแสง,นครสวรรค์,แม่น้ำน่าน,ภาคเหนือ,W,POINT (635424.1278017048 1754880.1304057408),0
516,PIN001,บ้านตาก,17.0406128,99.0662656,ตากตก,บ้านตาก,ตาก,แม่น้ำปิง,ภาคเหนือ,W,POINT (507052.0052676406 1884049.0302424538),0
518,WAN004,เกาะคา,18.1591488,99.384128,วังพร้าว,เกาะคา,ลำปาง,แม่น้ำวัง,ภาคเหนือ,W,POINT (540628.4090929974 2007835.737931386),0
521,CHI001,บ้านเขว้า,15.9331184,101.6995264,ภูแลนคา,บ้านเขว้า,ชัยภูมิ,แม่น้ำชี,ภาคตะวันออกเฉียงเหนือ,W,POINT (789013.8910180875 1763407.3745910558),0
523,ATG132,ท้ายปตร.ชลมาร์คพิจารณ์,14.7706544,100.0882432,สามชุก,สามชุก,สุพรรณบุรี,แม่น้ำท่าจีน,ภาคกลาง,W,POINT (617124.2056646259 1633243.211540677),0
524,ATG181,เหนือปตร.ช่องแค,15.1462736,100.4129664,พรหมนิมิต,ตาคลี,นครสวรรค์,แม่น้ำเจ้าพระยา,ภาคเหนือ,W,POINT (651814.0626957862 1674993.7862216404),0
525,ATG182,ท้ายปตร.ช่องแค,15.1454816,100.4131904,พรหมนิมิต,ตาคลี,นครสวรรค์,แม่น้ำเจ้าพระยา,ภาคเหนือ,W,POINT (651838.6990749516 1674906.3183641671),0
527,ATG121,เหนือปตร.ท่าโบสถ์,15.0542288,100.0115904,สามง่ามท่าโบสถ์,หันคา,ชัยนาท,แม่น้ำท่าจีน,ภาคกลาง,W,POINT (608730.9863308725 1664573.2785665493),0
532,ATG042,ท้ายปตร.มะขามเฒ่า-อู่ทอง,15.2223168,100.0623424,มะขามเฒ่า,วัดสิงห์,ชัยนาท,แม่น้ำท่าจีน,ภาคกลาง,W,POINT (614096.5609180542 1683193.210861407),0
534,ATG131,เหนือปตร.ชลมาร์คพิจารณ์,14.7711808,100.0883712,สามชุก,สามชุก,สุพรรณบุรี,แม่น้ำท่าจีน,ภาคกลาง,W,POINT (617137.7013092262 1633301.50848541),0
535,ATG162,ท้ายปตร.ยางมณี,14.750368,100.4149696,พิกุลทอง,ท่าช้าง,สิงห์บุรี,แม่น้ำเจ้าพระยา,ภาคกลาง,W,POINT (652308.4078751776 1631194.7985816833),0
538,ATG161,เหนือปตร.ยางมณี,14.7510208,100.4145984,พิกุลทอง,ท่าช้าง,สิงห์บุรี,แม่น้ำเจ้าพระยา,ภาคกลาง,W,POINT (652267.9904185722 1631266.7675781695),0
539,ATG151,เหนือปตร.บางระจัน,14.9259632,100.275808,เชิงกลัด,บางระจัน,สิงห์บุรี,แม่น้ำเจ้าพระยา,ภาคกลาง,W,POINT (637215.868999987 1650530.7586098562),0
540,ATG122,ท้ายปตร.ท่าโบสถ์,15.0535104,100.011744,สามง่ามท่าโบสถ์,หันคา,ชัยนาท,แม่น้ำท่าจีน,ภาคกลาง,W,POINT (608747.8620619591 1664493.8849028286),0
541,ATG021,เหนือ ปตร.มโนรมย์,15.3304752,100.10336,วัดโคก,มโนรมย์,ชัยนาท,แม่น้ำเจ้าพระยา,ภาคกลาง,W,POINT (618441.6372171843 1695180.0910115791),0
542,ATG112,ท้ายปตร.มหาราช,15.161408,100.17264,บ้านกล้วย,เมืองชัยนาท,ชัยนาท,แม่น้ำเจ้าพระยา,ภาคกลาง,W,POINT (625980.1373872042 1676515.7668603421),0
543,ATG152,ท้ายปตร.บางระจัน,14.9251696,100.2758784,เชิงกลัด,บางระจัน,สิงห์บุรี,แม่น้ำเจ้าพระยา,ภาคกลาง,W,POINT (637223.9453913776 1650443.0079350865),0
544,ATG011,ปตร.พลเทพ,15.215888,100.0728384,หาดท่าเสา,เมืองชัยนาท,ชัยนาท,แม่น้ำเจ้าพระยา,ภาคกลาง,W,POINT (615227.4510008603 1682487.5513700119),0
545,ATG111,เหนือปตร.มหาราช,15.1589104,100.17328,บ้านกล้วย,เมืองชัยนาท,ชัยนาท,แม่น้ำเจ้าพระยา,ภาคกลาง,W,POINT (626050.382674494 1676239.8352171215),0
546,ATG032,ท้ายปตร.บรมธาตุ,15.1578304,100.1528256,ชัยนาท,เมืองชัยนาท,ชัยนาท,แม่น้ำเจ้าพระยา,ภาคกลาง,W,POINT (623853.2494923966 1676108.6920500484),0
547,ATG031,เหนือปตร.บรมธาตุ,15.1581552,100.1534784,ชัยนาท,เมืองชัยนาท,ชัยนาท,แม่น้ำเจ้าพระยา,ภาคกลาง,W,POINT (623923.2017986156 1676144.9923764253),0
550,PIN006,เมืองกำแพงเพชร (P7A),16.4781504,99.5186304,นครชุม,เมืองกำแพงเพชร,กำแพงเพชร,แม่น้ำปิง,ภาคเหนือ,W,POINT (555355.8362265683 1821897.9586264377),0
552,PAS002,เมืองเพชรบูรณ์,16.4479424,101.1701632,สะเดียง,เมืองเพชรบูรณ์,เพชรบูรณ์,แม่น้ำป่าสัก,ภาคเหนือ,W,POINT (731711.6527902146 1819728.2310832187),0
553,NAN010,น้ำปาด,17.790888,100.748992,บ้านฝาย,น้ำปาด,อุตรดิตถ์,แม่น้ำน่าน,ภาคเหนือ,W,POINT (685393.4590794514 1967915.2186035218),0
554,DIV003,คลองผันน้ำยม-น่าน3,17.2924928,100.077664,คอรุม,พิชัย,อุตรดิตถ์,แม่น้ำน่าน,ภาคเหนือ,W,POINT (614536.2180296185 1912232.722585519),0
555,YOM010,เมืองแพร่,18.1337264,100.1245696,ป่าแมต,เมืองแพร่,แพร่,แม่น้ำยม,ภาคเหนือ,W,POINT (618966.0281562911 2005344.014757957),0
556,CPY001,สะพานเดชาติวงศ์,15.6884816,100.1238336,ปากน้ำโพ,เมืองนครสวรรค์,นครสวรรค์,แม่น้ำเจ้าพระยา,ภาคเหนือ,W,POINT (620431.891270536 1734796.8534132366),0
557,KWN001,นครไทย,17.1069856,100.8458816,นครไทย,นครไทย,พิษณุโลก,แม่น้ำน่าน,ภาคเหนือ,W,POINT (696398.0776996018 1892321.2188768492),0
558,NAN013,วังทอง,16.8222416,100.4315712,วังทอง,วังทอง,พิษณุโลก,แม่น้ำน่าน,ภาคเหนือ,W,POINT (652537.2950590304 1860442.2608475601),0
559,PAS003,หนองไผ่,16.1149728,101.0970752,นาเฉลียง,หนองไผ่,เพชรบูรณ์,แม่น้ำป่าสัก,ภาคเหนือ,W,POINT (724283.2686747545 1782792.7246946176),0
560,DIV005,ท่อทองแดง1,16.4971312,99.5196224,หนองปลิง,เมืองกำแพงเพชร,กำแพงเพชร,แม่น้ำปิง,ภาคเหนือ,W,POINT (555456.3148468187 1823997.950393203),0
561,YOM012,เมืองสุโขทัย,17.0213024,99.8196864,ธานี,เมืองสุโขทัย,สุโขทัย,แม่น้ำยม,ภาคเหนือ,W,POINT (587242.6930585412 1882094.3032797584),0
562,NAN012,เมืองพิษณุโลก,16.8647568,100.244768,ปากโทก,เมืองพิษณุโลก,พิษณุโลก,แม่น้ำน่าน,ภาคเหนือ,W,POINT (632600.5331569586 1865011.7819470016),0
563,PAS001,หล่มสัก,16.7814944,101.2467136,หล่มสัก,หล่มสัก,เพชรบูรณ์,แม่น้ำป่าสัก,ภาคเหนือ,W,POINT (739474.3487829103 1856739.2235523101),0
567,WAN005,เมืองลำปาง,18.3429888,99.5371136,ต้นธงชัย,เมืองลำปาง,ลำปาง,แม่น้ำวัง,ภาคเหนือ,W,POINT (556749.9838923117 2028216.87815619),0
568,KWN002,วัดโบสถ์,16.99888,100.3265152,วัดโบสถ์,วัดโบสถ์,พิษณุโลก,แม่น้ำน่าน,ภาคเหนือ,W,POINT (641209.9397196311 1879909.091885393),0
574,PAS004,วิเชียรบุรี,15.6558832,101.100768,ท่าโรง,วิเชียรบุรี,เพชรบูรณ์,แม่น้ำป่าสัก,ภาคเหนือ,W,POINT (725188.5243988468 1731986.1206672997),0
575,CHM002,ฮอด,18.1786064,98.6301824,หางดง,ฮอด,เชียงใหม่,แม่น้ำปิง,ภาคเหนือ,W,POINT (460889.52199950285 2009985.4215104776),0
577,NAN014,ตรอน,17.4183984,100.1307456,หาดสองแคว,ตรอน,อุตรดิตถ์,แม่น้ำน่าน,ภาคเหนือ,W,POINT (620096.4034621568 1926196.0894141083),0
580,DIV002,คลองผันน้ำยม-น่าน2,16.953872,100.121248,ท่าช้าง,พรหมพิราม,พิษณุโลก,แม่น้ำยม,ภาคเหนือ,W,POINT (619384.7912461034 1874792.8029910873),0
581,DIV004,คลองผันน้ำยม-น่าน4,16.6716608,100.2457856,งิ้วงาม,เมืองพิษณุโลก,พิษณุโลก,แม่น้ำยม,ภาคเหนือ,W,POINT (632842.9902319517 1843647.4672678905),0
594,CPY005,สรรพยา,15.1090144,100.2678464,โพนางดำออก,สรรพยา,ชัยนาท,แม่น้ำเจ้าพระยา,ภาคกลาง,W,POINT (636243.3293364123 1670776.488340926),0
596,THA003,ด่านช้าง,14.8350352,99.665408,ด่านช้าง,ด่านช้าง,สุพรรณบุรี,แม่น้ำท่าจีน,ภาคกลาง,W,POINT (571592.2858406225 1640186.729599544),0
598,THA004,สามชุก,14.7513792,100.0958656,สามชุก,สามชุก,สุพรรณบุรี,แม่น้ำท่าจีน,ภาคกลาง,W,POINT (617955.0600214766 1631114.9789913413),0
608,LBI002,เมืองลพบุรี,14.7604784,100.5996096,โพธิ์เก้าต้น,เมืองลพบุรี,ลพบุรี,แม่น้ำเจ้าพระยา,ภาคกลาง,W,POINT (672179.5065539675 1632446.5935798152),0
609,NAN011,เมืองอุตรดิตถ์,17.6101104,100.0994112,ป่าเซ่า,เมืองอุตรดิตถ์,อุตรดิตถ์,แม่น้ำน่าน,ภาคเหนือ,W,POINT (616645.5282926385 1947389.137583944),0
610,CPY003,ปตร.มโนรมย์,15.3276944,100.1091264,วัดโคก,มโนรมย์,ชัยนาท,แม่น้ำเจ้าพระยา,ภาคกลาง,W,POINT (619062.2803247181 1694875.6238488075),0
611,THA001,สะพานคง-ศุข ศรีสวัสดิ์,15.2250384,100.0782784,หาดท่าเสา,เมืองชัยนาท,ชัยนาท,แม่น้ำเจ้าพระยา,ภาคกลาง,W,POINT (615806.7882100887 1683502.6807796287),0
612,CPY004,สะพานธรรมจักร(วัดธรรมามูล),15.2503264,100.0834752,ธรรมามูล,เมืองชัยนาท,ชัยนาท,แม่น้ำเจ้าพระยา,ภาคกลาง,W,POINT (616351.0754344935 1686302.9041405614),0
632,CPY007,พรหมบุรี,14.7909008,100.4518272,พรหมบุรี,พรหมบุรี,สิงห์บุรี,แม่น้ำเจ้าพระยา,ภาคกลาง,W,POINT (656247.5470104108 1635704.358361071),0
633,CPY006,อินทร์บุรี,15.0060096,100.3309312,อินทร์บุรี,อินทร์บุรี,สิงห์บุรี,แม่น้ำเจ้าพระยา,ภาคกลาง,W,POINT (643092.2660269965 1659421.052285949),0
634,THA002,สรรคบุรี (แม่น้ำน้อย),15.0640832,100.16288,เที่ยงแท้,สรรคบุรี,ชัยนาท,แม่น้ำเจ้าพระยา,ภาคกลาง,W,POINT (624988.4466810144 1665743.5857138254),0
645,KON001,วังสะพุง,17.3123136,101.7725952,วังสะพุง,วังสะพุง,เลย,แม่น้ำโขง,ภาคตะวันออกเฉียงเหนือ,W,POINT (794726.1340544599 1916228.4957238575),0
651,KON002,เมืองเลย,17.5093296,101.7366336,ชัยพฤกษ์,เมืองเลย,เลย,แม่น้ำโขง,ภาคตะวันออกเฉียงเหนือ,W,POINT (790588.9648523282 1937990.069373269),0
656,KON003,สุวรรณคูหา,17.5756624,102.27328,นาสี,สุวรรณคูหา,หนองบัวลำภู,แม่น้ำโขง,ภาคตะวันออกเฉียงเหนือ,W,POINT (847492.9488139907 1946239.1488769145),0
680,DIV001,คลองผันน้ำยม-น่าน1,17.3662048,99.84368,ในเมือง,สวรรคโลก,สุโขทัย,แม่น้ำยม,ภาคเหนือ,W,POINT (589630.4761502021 1920264.1466665745),0
682,YOM011,งาว,18.7608016,99.9726656,หลวงใต้,งาว,ลำปาง,แม่น้ำยม,ภาคเหนือ,W,POINT (602522.2723559359 2074640.9146931923),0
683,SKG002,เมืองอุทัยธานี,15.3708384,100.044192,อุทัยใหม่,เมืองอุทัยธานี,อุทัยธานี,แม่น้ำสะแกกรัง,ภาคเหนือ,W,POINT (612067.9992681813 1699613.7432278097),0
684,NAN009,เวียงสา,18.5499488,100.7615552,ส้าน,เวียงสา,น่าน,แม่น้ำน่าน,ภาคเหนือ,W,POINT (685919.7621675513 2051940.9182204902),0
690,CPY002,พยุหะคีรี,15.4265632,100.134688,ท่าน้ำอ้อย,พยุหะคีรี,นครสวรรค์,แม่น้ำเจ้าพระยา,ภาคเหนือ,W,POINT (621749.123332335 1705827.3794352864),0
705,WEI011,เหนือฝายยางกะฮาด,15.6391504,102.0393472,กะฮาด,เนินสง่า,ชัยภูมิ,แม่น้ำชี,ภาคตะวันออกเฉียงเหนือ,W,POINT (825893.2625692688 1731352.621655241),0
706,WEI012,ท้ายฝายยางกะฮาด,15.638408,102.040032,กะฮาด,เนินสง่า,ชัยภูมิ,แม่น้ำชี,ภาคตะวันออกเฉียงเหนือ,W,POINT (825967.9264821627 1731271.4566885296),0
723,SKG003,สะพานต้นน้ำ (เกาะแก้ว-ตลิ่งสูง),15.9145904,99.4193984,ปางมะค่า,ขาณุวรลักษบุรี,กำแพงเพชร,แม่น้ำสะแกกรัง,ภาคเหนือ,W,POINT (544891.4489261793 1759532.9319426275),0
724,SKG007,คลองกลาง,15.7832336,99.653248,ศาลเจ้าไก่ต่อ,ลาดยาว,นครสวรรค์,แม่น้ำสะแกกรัง,ภาคเหนือ,W,POINT (569968.1849692232 1745066.6199392448),0
725,SKG008,หน่วยพิทักษ์ อช.แม่วงก์ที่ 4 (แม่เรวา),15.9124896,99.3274432,แม่เล่ย์,แม่วงก์,นครสวรรค์,แม่น้ำสะแกกรัง,ภาคเหนือ,R,POINT (535049.03348831 1759282.9614426834),0
726,SKG005,สะพานแม่วงก์,15.90176,99.470464,ปางมะค่า,ขาณุวรลักษบุรี,กำแพงเพชร,แม่น้ำสะแกกรัง,ภาคเหนือ,W,POINT (550360.6880649828 1758125.3150550514),0
727,SKG004,สะพานแม่เล่ย์,15.8417728,99.4180736,แม่เล่ย์,แม่วงก์,นครสวรรค์,แม่น้ำสะแกกรัง,ภาคเหนือ,W,POINT (544765.7235650112 1751477.8780918715),0
741,SWR003,อบต.วังยาว,14.8901616,99.3775296,วังยาว,ด่านช้าง,สุพรรณบุรี,แม่น้ำแม่กลอง,ภาคกลาง,R,POINT (540608.1522970538 1646211.8165711588),0
775,SWR002,รพสต.แก่นมะกรูด,15.1618496,99.2890112,แก่นมะกรูด,บ้านไร่,อุทัยธานี,แม่น้ำแม่กลอง,ภาคเหนือ,R,POINT (531047.4828384673 1676247.885298007),0
783,FOP016,ลำน้ำสานบ้านทุ่งยาวเหนือ,18.5118656,99.0772736,ศรีบัวบาน,เมืองลำพูน,ลำพูน,แม่น้ำปิง,ภาคเหนือ,W,POINT (508156.46128280344 2046819.6168108943),0
810,FOP056,คลองจอมแจ้ง,17.702368,100.0216832,แม่พูล,ลับแล,อุตรดิตถ์,,ภาคเหนือ,W,POINT (608342.767066777 1957550.9432101324),0
814,FOP020,ประปาหมู่บ้านมหาราช,17.7214784,100.0180352,แม่พูล,ลับแล,อุตรดิตถ์,,ภาคเหนือ,R,POINT (607944.4558170442 1959663.3609395472),0
819,FOP021,น้ำตกแม่พูล,17.7283984,99.9781632,แม่พูล,ลับแล,อุตรดิตถ์,,ภาคเหนือ,R,POINT (603712.4183135596 1960406.611179264),0
823,FOP055,คลองกั้ง,17.71632,100.1241152,บ้านด่านนาขาม,เมืองอุตรดิตถ์,อุตรดิตถ์,,ภาคเหนือ,W,POINT (619196.8823908919 1959156.5987516346),0
824,FOP019,คลองสรอย วัดแม่ขมวก,17.7749616,99.4693824,สรอย,วังชิ้น,แพร่,,ภาคเหนือ,W,POINT (549753.1539861134 1965350.670755199),0
825,FOP022,สะพานวัดมงคลร่วมใจ (บ้านวังสาร),16.6705056,100.327904,ท่าตาล,บางกระทุ่ม,พิษณุโลก,,ภาคเหนือ,W,POINT (641601.7243686611 1843576.0885762721),0
837,VLGE32,รร. บ้านเพ็กเฟื้อย-ห้วยเตย,17.147376,102.332128,หนองหว้า,เมืองหนองบัวลำภู,หนองบัวลำภู,แม่น้ำชี,ภาคตะวันออกเฉียงเหนือ,R,POINT (854570.3697750146 1898900.872576214),0
839,VLGE49,ตำบลซับสมบูรณ์,15.6160368,101.0235072,ซับสมบูรณ์,วิเชียรบุรี,เพชรบูรณ์,แม่น้ำป่าสัก,ภาคเหนือ,R,POINT (716945.6488674234 1727495.8130838606),0
845,VLGE13,ชุมแสงสงคราม,16.858552,100.0596416,ชุมแสงสงคราม,บางระกำ,พิษณุโลก,แม่น้ำยม,ภาคเหนือ,W,POINT (612881.3380318112 1864210.205445241),0
846,VLGE37,ตาดโตน,15.8730224,102.0162816,นาฝาย,เมืองชัยภูมิ,ชัยภูมิ,แม่น้ำชี,ภาคตะวันออกเฉียงเหนือ,R,POINT (823047.4956841774 1757217.1551552955),0
866,VLGE12,นครป่าหมาก,16.6233456,100.3691904,นครป่าหมาก,บางกระทุ่ม,พิษณุโลก,แม่น้ำน่าน,ภาคเหนือ,W,POINT (646040.7445439491 1838387.6753733542),0
869,VLGE45,พิพิธภัณฑ์ธรรมชาติบ้านห้วยปลาหลด,16.7837488,98.8948416,ด่านแม่ละเมา,แม่สอด,ตาก,แม่น้ำสาละวิน,ภาคเหนือ,R,POINT (488793.83654671075 1855635.4712181424),0
872,VLGE28,ชุมชนแม่ตาลน้อย,18.4151984,99.2646784,เวียงตาล,ห้างฉัตร,ลำปาง,แม่น้ำวัง,ภาคเหนือ,R,POINT (527953.323234791 2036142.8665038801),0
873,VLGE36,ชุมชนห้วยไร่,17.8857776,100.0416,ห้วยไร่,เด่นชัย,แพร่,แม่น้ำยม,ภาคเหนือ,W,POINT (610342.2443338712 1977856.5519136933),0
875,VLGE15,ชุมชนหนองปิ้งไก่,16.4347792,99.3673472,นาบ่อคำ,เมืองกำแพงเพชร,กำแพงเพชร,แม่น้ำปิง,ภาคเหนือ,R,POINT (539217.1650064813 1817064.7757538916),0
883,TBR012,อบต.บ้านหนองตางู,16.1249984,100.0577472,หนองตางู,บรรพตพิสัย,นครสวรรค์,แม่น้ำน่าน,ภาคเหนือ,R,POINT (613104.8798102379 1783052.0672355543),0
886,TBR014,อบต.นาโป่ง,17.6442256,99.16272,นาโป่ง,เถิน,ลำปาง,แม่น้ำวัง,ภาคเหนือ,R,POINT (517260.1977668681 1950832.1907603086),0
887,TBR011,อบต.เวียงตาล,18.311392,99.3252352,เวียงตาล,ห้างฉัตร,ลำปาง,แม่น้ำวัง,ภาคเหนือ,R,POINT (534369.4624248688 2024667.9472783215),0
889,TBW009,อ่างเก็บน้ำแม่เกี๋ยง,18.4327824,99.498272,บ้านเอื้อม,เมืองลำปาง,ลำปาง,แม่น้ำวัง,ภาคเหนือ,W,POINT (552618.7420786658 2038140.3272470657),0
891,TBW014,สะพานข้ามคลองเกรียงไกร,15.8432304,100.211488,บางเคียน,ชุมแสง,นครสวรรค์,แม่น้ำน่าน,ภาคเหนือ,W,POINT (629727.8705016825 1751968.9944645178),0
894,TBR015,สวนเพชรล้านนา,18.8031248,99.583744,แม่สุก,แจ้ห่ม,ลำปาง,แม่น้ำวัง,ภาคเหนือ,R,POINT (561511.7366722152 2079144.876351387),0
908,TBR013,อบต.ท่าเสา,15.9900416,100.2215936,ท่าเสา,โพทะเล,พิจิตร,แม่น้ำน่าน,ภาคเหนือ,R,POINT (630715.1483386343 1768217.7375107969),0
944,CHK001,บ่อดินขาว,15.1689984,100.4147136,ช่องแค,ตาคลี,นครสวรรค์,,ภาคเหนือ,W,POINT (651985.5858267937 1677509.1616832232),0
945,KWN003,เขื่อนแควน้อยบำรุงแดน,17.182176,100.4139072,คันโช้ง,วัดโบสถ์,พิษณุโลก,แม่น้ำน่าน,ภาคเหนือ,W,POINT (650367.380449496 1900256.5995517748),0
949,CHK002,เขาวง,15.1817088,100.4145664,ช่องแค,ตาคลี,นครสวรรค์,,ภาคเหนือ,W,POINT (651960.678896296 1678915.2801496552),0
